[{"OBJECT_NAME":"JILIN-1 07","OBJECT_ID":"2018-008E","EPOCH":"2026-03-09T22:24:26.445888","MEAN_MOTION":15.32987507,"ECCENTRICITY":0.00101791,"INCLINATION":97.1876,"RA_OF_ASC_NODE":91.5817,"ARG_OF_PERICENTER":62.7832,"MEAN_ANOMALY":297.4447,"EPHEMERIS_TYPE":0,"CLASSIFICATION_TYPE":"U","NORAD_CAT_ID":43159,"ELEMENT_SET_NO":999,"REV_AT_EPOCH":44978,"BSTAR":0.00036439521,"MEAN_MOTION_DOT":0.00011559,"MEAN_MOTION_DDOT":0},{"OBJECT_NAME":"STARLINK-35164","OBJECT_ID":"2025-198AD","EPOCH":"2026-03-09T19:46:37.482816","MEAN_MOTION":15.30200823,"ECCENTRICITY":9.077e-5,"INCLINATION":53.159,"RA_OF_ASC_NODE":270.1554,"ARG_OF_PERICENTER":70.4771,"MEAN_ANOMALY":289.6327,"EPHEMERIS_TYPE":0,"CLASSIFICATION_TYPE":"U","NORAD_CAT_ID":65519,"ELEMENT_SET_NO":999,"REV_AT_EPOCH":2864,"BSTAR":0.00059540059,"MEAN_MOTION_DOT":0.00017317,"MEAN_MOTION_DDOT":0}]
